ONEWEB-0538             
1 56047U 23043B   23259.54920798  .00002259  00000+0  23687-3 0  9995
2 56047  86.8955  75.3418 0004715  80.2825 279.8934 14.89082255 26098
ONEWEB-0546             
1 56048U 23043C   23259.59071788  .00002234  00000+0  23457-3 0  9995
2 56048  86.8887  75.2326 0001126 152.7856 207.3430 14.89045458 27016
ONEWEB-0547             
1 56049U 23043D   23259.91667824  .00043682  00000+0  10540+0 0  9991
2 56049  87.9263  83.9248 0002794  79.4122 323.2096 13.21715311 26460
ONEWEB-0548             
1 56050U 23043E   23259.78264539 -.00002449  00000+0 -26379-3 0  9993
2 56050  86.8970  75.2885 0001759 115.6144 244.5264 14.89010837 27035
ONEWEB-0549             
1 56051U 23043F   23259.58334491  .00040088  00000+0  96600-1 0  9998
2 56051  87.9156  84.0016 0002798  74.8787 211.9546 13.21828901  5492
ONEWEB-0550             
1 56052U 23043G   23259.91667824  .00000013  00000+0  00000+0 0  9996
2 56052  87.9415  83.9470 0002578  56.5977  50.4311 13.28651611 26462
ONEWEB-0551             
1 56053U 23043H   23259.58872687 -.00000084  00000+0 -25761-3 0  9990
2 56053  87.8950  99.2568 0001981  82.1703 277.9652 13.15546072 25220
ONEWEB-0552             
1 56054U 23043J   23259.91667824  .00000013  00000+0  00000+0 0  9998
2 56054  87.9296  83.9539 0001228 111.7842  46.9558 13.24751851 26470
